BATSU-CS1 (IRAZU)       
1 43468U 98067NR  20011.30261731  .00124330  00000-0  43095-3 0  9999
2 43468  51.6334 347.1396 0003477  85.1975 274.9428 15.88574518195539
CUBERRT                 
1 43546U 98067NU  20012.12320369  .00010900  00000-0  98342-4 0  9993
2 43546  51.6370   5.6003 0003102 194.6342 165.4565 15.68747858 85515
TEMPEST-D               
1 43547U 98067NV  20011.64511065  .00004980  00000-0  66061-4 0  9999
2 43547  51.6380  27.2110 0005023 174.6990 185.4057 15.60240745 84867
RAINCUBE                
1 43548U 98067NW  20011.64363138  .00018976  00000-0  17931-3 0  9997
2 43548  51.6356  15.8798 0003682 190.1255 169.9667 15.67035485 85463
HALOSAT                 
1 43549U 98067NX  20011.72650350  .00019700  00000-0  18736-3 0  9992
2 43549  51.6371  15.7217 0003555 192.6788 167.4119 15.66846361 85033
ENDUROSAT ONE           
1 43551U 98067NZ  20011.45716820  .00026861  00000-0  22194-3 0  9999
2 43551  51.6355  11.6418 0003231 203.7020 156.3829 15.70092935 85478
EQUISAT                 
1 43552U 98067PA  20012.12992808  .00019861  00000-0  18590-3 0  9994
2 43552  51.6377  12.4547 0004108 203.8657 156.2149 15.67235691 85485
AEROCUBE 12A            
1 43556U 18046C   20011.84597002  .00001614  00000-0  68459-4 0  9999
2 43556  51.6415 142.5584 0008974  92.8038 267.3969 15.29294245 83257
AEROCUBE 12B            
1 43557U 18046D   20011.62003850  .00001343  00000-0  59404-4 0  9998
2 43557  51.6423 144.0429 0008974  91.0871 269.1137 15.29094461 83163
UITMSAT-1               
1 43589U 98067PD  20012.13878049  .00024008  00000-0  21502-3 0  9991
2 43589  51.6349  12.3974 0003214 213.9771 146.1020 15.68196302 81223
MAYA-1                  
1 43590U 98067PE  20011.55844435  .00023834  00000-0  21368-3 0  9996
2 43590  51.6350  15.2801 0003339 213.0166 147.0623 15.68175607 81061
BHUTAN-1                
1 43591U 98067PF  20011.41346840  .00022655  00000-0  20284-3 0  9995
2 43591  51.6357  15.8566 0003475 213.6369 146.4407 15.68241175 81040
SIRIUSSAT-1             
1 43595U 98067PG  20012.17006551  .00020235  00000-0  19183-3 0  9993
2 43595  51.6351  14.8712 0002296 156.0335 204.0768 15.66908824 80301
SIRIUSSAT-2             
1 43596U 98067PH  20011.58390437  .00019774  00000-0  18871-3 0  9996
2 43596  51.6359  18.5164 0002698 156.1719 203.9402 15.66759431 80205
TANUSHA-3               
1 43597U 98067PJ  20011.58242125  .00032472  00000-0  26123-3 0  9996
2 43597  51.6333  13.1351 0001632 164.5158 195.5889 15.70633004 80278
SURFSAT                 
1 43614U 18070B   20011.64133240  .00002790  00000-0  73637-4 0  9999
2 43614  93.0366  89.3035 0013689 219.3169 140.7092 15.38448363 74215
CP7 (DAVE)              
1 43615U 18070C   20011.72491850  .00002682  00000-0  71054-4 0  9994
2 43615  93.0368  89.3354 0013856 218.3708 141.6561 15.38337750 74225
ELFIN-B                 
1 43616U 18070D   20011.69066920  .00003660  00000-0  93715-4 0  9992
2 43616  93.0329  89.2307 0014362 221.9346 138.0809 15.39350245 74243
ELFIN-A                 
1 43617U 18070E   20012.19461850  .00004049  00000-0  10326-3 0  9998
2 43617  93.0381  89.8202 0013849 215.7138 144.3191 15.39477385 74329
CUBEBEL-1 (BSUSAT-1)    
1 43666U 18083E   20012.22600869  .00000904  00000-0  47822-4 0  9993
2 43666  97.5038  40.1383 0014862 181.2934 241.1880 15.17946386 66766
DEBRISSAT-2             
1 43680U 98067PR  20011.57740025  .00050827  00000-0  34511-3 0  9994
2 43680  51.6341  10.1347 0000749 150.7412 209.3629 15.74427108 89040
CICERO 10               
1 43690U 18088A   20011.63506750  .00000954  00000-0  42378-4 0  9999
2 43690  85.0384 182.2701 0015576 161.2141 198.9678 15.19967919 64783
IRVINE01                
1 43693U 18088D   20011.81959986  .00002981  00000-0  12757-3 0  9994
2 43693  85.0355 181.2827 0019164 146.0435 214.2038 15.22188856 64866
PROXIMA I               
1 43694U 18088E   20011.67534473  .00001067  00000-0  45103-4 0  9995
2 43694  85.0327 181.1713 0020723 138.7517 221.5295 15.21706116 64850
PROXIMA II              
1 43696U 18088G   20011.67388255  .00001075  00000-0  45417-4 0  9999
2 43696  85.0328 181.1744 0020761 138.7003 221.5813 15.21709913 64842
FACSAT-1                
1 43721U 18096C   20012.13654455  .00001258  00000-0  50466-4 0  9990
2 43721  97.4388  86.4682 0016678 322.4384  37.5688 15.26791270 62382
CENTAURI-2              
1 43722U 18096D   20011.75075589  .00001893  00000-0  73646-4 0  9993
2 43722  97.4396  86.2295 0016750 324.1442  35.8671 15.27177792 62320
INNOSAT-2               
1 43738U 18096V   20012.16258588  .00002680  00000-0  95613-4 0  9991
2 43738  97.4404  87.9896 0022914 330.8229  29.1729 15.29549756 62480
SIRION PATHFINDER-2     
1 43759U 18099B   20012.18198558 -.00000259  00000-0 -18255-4 0  9998
2 43759  97.7244  86.3848 0014064 354.1733   5.9322 14.95214278 60427
CORVUS-BC 4             
1 43767U 18099K   20011.79681460  .00000162  00000-0  20176-4 0  9998
2 43767  97.7228  85.5850 0011619   0.6977 359.4257 14.94653413 60351
MOVE-II                 
1 43780U 18099Y   20011.73491287  .00000584  00000-0  58209-4 0  9999
2 43780  97.7244  85.8464 0013407   7.5676 352.5745 14.95246892 60342
SPACEBEE-7              
1 43816U 18099BL  20012.17470395 -.00000018  00000-0  35540-5 0  9992
2 43816  97.7260  86.5720 0013034 350.7660   9.3320 14.95565699 59988
SPACEBEE-5              
1 43817U 18099BM  20012.18310825  .00000457  00000-0  45852-4 0  9997
2 43817  97.7294  86.8112 0012652 350.1518   9.9453 14.96000727 59996
SPACEBEE-6              
1 43818U 18099BN  20012.15552420  .00000921  00000-0  87802-4 0  9991
2 43818  97.7271  86.6259 0012811 351.0223   9.0767 14.95704668 60133
SHIELDS 1               
1 43850U 18104B   20011.99627751  .00000041  00000-0  00000+0 0  9998
2 43850  85.0350 279.4232 0012780 291.8958  68.0995 15.21246808 59538
STF-1                   
1 43852U 18104D   20011.98927148  .00000041  00000-0  00000+0 0  9992
2 43852  85.0381 279.8496 0013107 310.6198  49.3976 15.20960441 59514
ZACUBE-2                
1 43907U 18111AH  20012.11959239  .00000641  00000-0  28855-4 0  9992
2 43907  97.2787 276.4961 0021144 343.8470  16.2091 15.24411388 58044
LUME 1                  
1 43908U 18111AJ  20011.75453786  .00001171  00000-0  49918-4 0  9990
2 43908  97.2788 276.2229 0021053 345.1031  14.9584 15.24718249 57999
AOBA VELOX-IV           
1 43940U 19003J   20012.20705539  .00001813  00000-0  76059-4 0  9993
2 43940  97.2524  68.7361 0025685  61.8453 336.0373 15.24452835 54693
CATSAT-2                
1 44029U 98067PV  20011.75618567  .00012471  00000-0  15387-3 0  9990
2 44029  51.6392  32.4879 0003704 204.1143 155.9677 15.60584798 53864
DELPHINI                
1 44030U 98067PW  20011.78194625  .00015472  00000-0  18601-3 0  9995
2 44030  51.6365  31.8585 0003418 197.7293 162.3582 15.61051401 53844
UNITE                   
1 44031U 98067PX  20011.77301224  .00008878  00000-0  12049-3 0  9992
2 44031  51.6378  34.8269 0002731 190.2974 169.7963 15.58477088 53801
TECHEDSAT 8             
1 44032U 98067PY  20011.74132087  .00070981  00000-0  49479-3 0  9990
2 44032  51.6349  20.2937 0000679  95.4256 264.6820 15.73679384 53974
CATSAT-1                
1 44033U 98067PZ  20011.62793308  .00014142  00000-0  17368-3 0  9996
2 44033  51.6394  33.1346 0003575 201.1149 158.9697 15.60576619 53753
RAAVANA-1               
1 44329U 98067QE  20011.10984354  .00010206  00000-0  15672-3 0  9993
2 44329  51.6405  46.1720 0006816 126.6839 233.4780 15.54899736 32347
UGUISU                  
1 44330U 98067QF  20011.50122611  .00009346  00000-0  14437-3 0  9990
2 44330  51.6404  44.2843 0006816 126.7451 233.4167 15.54852785 32380
NEPALISAT-1             
1 44331U 98067QG  20011.81222301  .00009539  00000-0  14671-3 0  9996
2 44331  51.6403  42.6132 0006841 130.4216 229.7373 15.54945908 32446
SPOOQY-1                
1 44332U 98067QH  20011.80969295  .00009124  00000-0  14078-3 0  9997
2 44332  51.6403  42.5934 0005655 131.6603 228.4873 15.54925020 32401
SPACEBEE-9              
1 44370U 19037F   20012.08177152  .00006704  00000-0  16620-3 0  9999
2 44370  45.0150 274.1215 0014622 338.8963  21.1319 15.41105335 30303
SPACEBEE-8              
1 44371U 19037G   20011.69987700  .00015131  00000-0  33902-3 0  9990
2 44371  45.0131 274.6562 0012992 344.7110  15.3391 15.43279483 30258
IOD-1 GEMS              
1 44385U 98067QK  20011.62809542  .00014220  00000-0  20989-3 0  9994
2 44385  51.6413  43.6580 0003467  92.5391 267.5997 15.55629228 29899
MOVE-IIB                
1 44398U 19038N   20011.86241401  .00001199  00000-0  73253-4 0  9993
2 44398  97.5161 335.3477 0024337 313.1898  46.7299 15.11974826 28767
SONATE                  
1 44400U 19038Q   20012.13326621  .00000434  00000-0  29086-4 0  9992
2 44400  97.5186 335.6320 0024114 310.2300  49.6820 15.11799131 28808
LUCKY-7                 
1 44406U 19038W   20011.84347560  .00000757  00000-0  47602-4 0  9992
2 44406  97.5181 335.4005 0023586 311.2777  48.6422 15.12022221 28759
BEESAT 9                
1 44412U 19038AC  20011.84688737  .00000985  00000-0  60861-4 0  9998
2 44412  97.5177 335.3887 0021829 317.6655  42.2890 15.12034798 28459
JAISAT-1                
1 44419U 19038F   20011.85128596  .00000875  00000-0  53790-4 0  9999
2 44419  97.5178 335.5384 0020684 317.3926  42.5699 15.12518189 28773
SWIATOWID               
1 44426U 98067QL  20012.16217731  .00015256  00000-0  22300-3 0  9992
2 44426  51.6440  40.9853 0004235  90.2495  19.4379 15.55827936 29986
KRAKSAT                 
1 44427U 98067QM  20011.80082155  .00006765  00000-0  11092-3 0  9994
2 44427  51.6418  44.0547 0004276  86.5043 273.6436 15.53727079 29959
VCC A                   
1 44428U 98067QN  20011.81676889  .00009211  00000-0  14476-3 0  9997
2 44428  51.6416  43.4140 0003460 102.4235 257.7143 15.54406672 29968
